[{"OBJECT_NAME":"STARLINK-4760","OBJECT_ID":"2022-114L","EPOCH":"2026-03-09T21:28:08.566176","MEAN_MOTION":15.08832573,"ECCENTRICITY":0.00012852,"INCLINATION":53.2179,"RA_OF_ASC_NODE":303.1086,"ARG_OF_PERICENTER":87.2167,"MEAN_ANOMALY":272.8972,"EPHEMERIS_TYPE":0,"CLASSIFICATION_TYPE":"U","NORAD_CAT_ID":53828,"ELEMENT_SET_NO":999,"REV_AT_EPOCH":19286,"BSTAR":-2.5403247e-5,"MEAN_MOTION_DOT":-6.92e-6,"MEAN_MOTION_DDOT":0},{"OBJECT_NAME":"LEMUR-2-TILLINFINITY","OBJECT_ID":"2025-061F","EPOCH":"2026-03-09T21:40:30.357696","MEAN_MOTION":15.139452,"ECCENTRICITY":0.00168906,"INCLINATION":97.5532,"RA_OF_ASC_NODE":45.5587,"ARG_OF_PERICENTER":226.702,"MEAN_ANOMALY":133.2804,"EPHEMERIS_TYPE":0,"CLASSIFICATION_TYPE":"U","NORAD_CAT_ID":63356,"ELEMENT_SET_NO":999,"REV_AT_EPOCH":5261,"BSTAR":0.00030453504,"MEAN_MOTION_DOT":5.472e-5,"MEAN_MOTION_DDOT":0}]
